GLOBALSTAR M084         
1 38040U 11080A   24169.90773503 -.00000101  00000+0  12986-4 0  9993
2 38040  52.0016  77.4717 0000735  36.6947  41.2789 12.62263528576662
GLOBALSTAR M080         
1 38041U 11080B   24170.13286139 -.00000099  00000+0  24472-4 0  9994
2 38041  52.0070  78.2645 0000637  13.6287 128.2942 12.62273598576952
GLOBALSTAR M082         
1 38042U 11080C   24170.06992631 -.00000086  00000+0  10116-3 0  9993
2 38042  52.0095  33.8659 0001356  91.1238  63.7510 12.62270407577689
GLOBALSTAR M092         
1 38043U 11080D   24169.86023986 -.00000114  00000+0 -56328-4 0  9997
2 38043  52.0076 124.8590 0000511  32.9180   9.6728 12.62262826575948
GLOBALSTAR M090         
1 38044U 11080E   24169.90677007 -.00000093  00000+0  61080-4 0  9998
2 38044  51.9904  28.6406 0001044  90.5355 282.6641 12.62264124577650
GLOBALSTAR M086         
1 38045U 11080F   24170.11974517 -.00000085  00000+0  10383-3 0  9990
2 38045  51.9917  28.5135 0000434 164.3973 337.9269 12.62263451577686
GLOBALSTAR M097         
1 39072U 13005A   24169.71952632 -.00000104  00000+0 -24799-5 0  9999
2 39072  52.0062 303.9134 0000881 131.2799 228.8144 12.62263798524781
GLOBALSTAR M093         
1 39073U 13005B   24170.08883970 -.00000095  00000+0  51309-4 0  9994
2 39073  51.9826 296.6738 0000954 137.9723 222.1217 12.62260368524909
